[{"OBJECT_NAME":"STARLINK-36397","OBJECT_ID":"2026-014G","EPOCH":"2026-03-09T15:49:12.339840","MEAN_MOTION":15.7524205,"ECCENTRICITY":0.0002422,"INCLINATION":97.2825,"RA_OF_ASC_NODE":313.5125,"ARG_OF_PERICENTER":79.3985,"MEAN_ANOMALY":280.7553,"EPHEMERIS_TYPE":0,"CLASSIFICATION_TYPE":"U","NORAD_CAT_ID":67538,"ELEMENT_SET_NO":999,"REV_AT_EPOCH":856,"BSTAR":0.00098648,"MEAN_MOTION_DOT":0.00149969,"MEAN_MOTION_DDOT":0},{"OBJECT_NAME":"JIELONG-3 R\/B","OBJECT_ID":"2023-190C","EPOCH":"2026-03-09T21:26:26.113920","MEAN_MOTION":15.18151254,"ECCENTRICITY":0.02497151,"INCLINATION":86.5597,"RA_OF_ASC_NODE":295.7177,"ARG_OF_PERICENTER":271.8036,"MEAN_ANOMALY":85.4623,"EPHEMERIS_TYPE":0,"CLASSIFICATION_TYPE":"U","NORAD_CAT_ID":58507,"ELEMENT_SET_NO":999,"REV_AT_EPOCH":12333,"BSTAR":0.00045620602,"MEAN_MOTION_DOT":0.00021606,"MEAN_MOTION_DDOT":0}]
